STARLINK-35066          
1 65386U 25191H   26191.11148128  .00000497  00000+0  38306-4 0  9994
2 65386  97.2845  60.3757 0002276  83.4704 276.6783 15.05660005 48690
STARLINK-34703          
1 65387U 25191J   26191.05887759  .00004790  00000+0  33548-3 0  9990
2 65387  97.2853  60.2905 0002492  81.3407 278.8103 15.05667255 48684
STARLINK-34957          
1 65388U 25191K   26191.10595191  .00001655  00000+0  11857-3 0  9999
2 65388  97.2904  60.3822 0004185  67.9615 292.2056 15.05656325 48697
STARLINK-34993          
1 65389U 25191L   26191.08377078 -.00006845  00000+0 -47088-3 0  9992
2 65389  97.2839  60.2536 0001192  61.6905 298.4443 15.05659259 48680
STARLINK-35083          
1 65390U 25191M   26191.09486642  .00004238  00000+0  29739-3 0  9998
2 65390  97.2852  60.2437 0003158  86.3238 273.8351 15.05654912 48680
STARLINK-34786          
1 65391U 25191N   26191.11425167  .00003191  00000+0  22490-3 0  9991
2 65391  97.2860  60.3715 0002841  80.4487 279.7062 15.05660720 48698
STARLINK-35082          
1 65392U 25191P   26191.10039352  .00004558  00000+0  31932-3 0  9997
2 65392  97.2869  60.3906 0002574  86.8519 273.3003 15.05683146 48691
STARLINK-35097          
1 65393U 25191Q   26191.26931632  .00002398  00000+0  17001-3 0  9998
2 65393  97.2861  60.4639 0002205  98.5594 261.5884 15.05661452 47266
STARLINK-35058          
1 65394U 25191R   26191.07547603 -.00000484  00000+0 -29641-4 0  9999
2 65394  97.2848  60.2676 0002758  84.7797 275.3746 15.05662186 48688
STARLINK-35094          
1 65395U 25191S   26190.34720724  .00004054  00000+0  28453-3 0  9990
2 65395  97.2852  59.5734 0002315  82.3953 277.7538 15.05675592 48586
STARLINK-34811          
1 65396U 25191T   26191.09209644  .00002361  00000+0  16739-3 0  9990
2 65396  97.2837  60.2480 0003080  82.6064 277.5514 15.05662884 48686
STARLINK-34940          
1 65397U 25191U   26190.52998675  .00004423  00000+0  31018-3 0  9995
2 65397  97.2856  59.7855 0002132  89.4696 270.6776 15.05661273 48607
STARLINK-34931          
1 65398U 25191V   26191.28594898  .00003141  00000+0  22142-3 0  9993
2 65398  97.2854  60.4434 0002838  85.9749 274.1803 15.05660070 48717
STARLINK-34836          
1 65399U 25191W   26191.26655106  .00001254  00000+0  90775-4 0  9993
2 65399  97.2842  60.4677 0002005  85.5450 274.6007 15.05663910 48712
STARLINK-34876          
1 65400U 25191X   26190.51060342  .00004988  00000+0  34930-3 0  9992
2 65400  97.2882  59.8146 0002270  98.7951 261.3534 15.05656926 48603
STARLINK-34909          
1 65401U 25191Y   26190.52443202  .00002011  00000+0  14321-3 0  9991
2 65401  97.2856  59.7931 0002266  82.2274 277.9211 15.05662562 48616
STARLINK-34848          
1 65402U 25191Z   26191.31639510  .00002967  00000+0  20937-3 0  9999
2 65402  97.2879  60.5553 0002223  70.9757 289.1711 15.05660126 48721
LEMUR-2-LUCILLE-ROSE    
1 65403U 25135BV  26191.30173440  .00004504  00000+0  36198-3 0  9997
2 65403  97.7711 307.5136 0014272 204.1492 155.9064 15.00452808 52106
STARLINK-35031          
1 65404U 25192A   26190.94502065  .00019484  00000+0  58589-3 0  9990
2 65404  53.1603  32.9143 0001579 154.6468 205.4613 15.34421658 47985
STARLINK-34830          
1 65405U 25192B   26191.15113896  .00017254  00000+0  56605-3 0  9995
2 65405  53.1586  22.8161 0001798 180.9036 179.1962 15.31724204 48154
STARLINK-35036          
1 65406U 25192C   26191.15788908  .00027133  00000+0  91755-3 0  9990
2 65406  53.1588  23.5735 0005226 117.8358 242.3173 15.30449178 48136
STARLINK-35035          
1 65407U 25192D   26189.97918379  .00019171  00000+0  65754-3 0  9998
2 65407  53.1590  29.0153 0001150  85.6532 274.4600 15.30208980 47968
STARLINK-35008          
1 65408U 25192E   26191.25002315 -.00009059  00000+0 -29421-3 0  9994
2 65408  53.1595  23.0763 0000707 128.4331  53.6119 15.30190630  5761
STARLINK-35022          
1 65409U 25192F   26191.26331277  .00016421  00000+0  53933-3 0  9992
2 65409  53.1600  22.0971 0001092 116.8707 243.2407 15.31724886 48160
STARLINK-35024          
1 65410U 25192G   26189.83247260  .00011541  00000+0  38288-3 0  9996
2 65410  53.1593  28.8080 0000900  86.9452 273.1652 15.31717668 47948
STARLINK-34983          
1 65411U 25192H   26191.18805482  .00026577  00000+0  86403-3 0  9991
2 65411  53.1604  22.3377 0000765 151.0697 209.0347 15.31741559 48153
STARLINK-34992          
1 65412U 25192J   26189.88772229  .00013143  00000+0  43438-3 0  9994
2 65412  53.1603  28.4426 0000918 101.5318 258.5787 15.31711268 47931
STARLINK-35003          
1 65413U 25192K   26191.25002315 -.00012089  00000+0 -34720-3 0  9995
2 65413  53.1601  23.1347 0001113  89.0390  61.5138 15.34402044  5727
STARLINK-34238          
1 65415U 25192M   26191.25002315 -.00011490  00000+0 -33842-3 0  9996
2 65415  53.1592  23.2630 0000859  72.6684  12.1261 15.33562119  5878
STARLINK-34855          
1 65416U 25192N   26189.99075631  .00033452  00000+0  10849-2 0  9997
2 65416  53.1594  29.0835 0001097  79.6550 280.4576 15.31699374 47952
