OBJECT_NAME,OBJECT_ID,EPOCH,MEAN_MOTION,ECCENTRICITY,INCLINATION,RA_OF_ASC_NODE,ARG_OF_PERICENTER,MEAN_ANOMALY,EPHEMERIS_TYPE,CLASSIFICATION_TYPE,NORAD_CAT_ID,ELEMENT_SET_NO,REV_AT_EPOCH,BSTAR,MEAN_MOTION_DOT,MEAN_MOTION_DDOT
STARLINK-35066,2025-191H,2026-07-10T02:40:31.982592,15.05660005,.00022765,97.2845,60.3757,83.4704,276.6783,0,U,65386,999,4869,.38306041E-4,.497E-5,0
STARLINK-34703,2025-191J,2026-07-10T01:24:47.023776,15.05667255,.00024923,97.2853,60.2905,81.3407,278.8103,0,U,65387,999,4868,.33547602E-3,.479E-4,0
STARLINK-34957,2025-191K,2026-07-10T02:32:34.245024,15.05656325,.00041851,97.2904,60.3822,67.9615,292.2056,0,U,65388,999,4869,.11857284E-3,.1655E-4,0
STARLINK-34993,2025-191L,2026-07-10T02:00:37.795392,15.05659259,.00011929,97.2839,60.2536,61.6905,298.4443,0,U,65389,999,4868,-.47087615E-3,-.6845E-4,0
STARLINK-35083,2025-191M,2026-07-10T02:16:36.458688,15.05654912,.00031587,97.2852,60.2437,86.3238,273.8351,0,U,65390,999,4868,.29738699E-3,.4238E-4,0
STARLINK-34786,2025-191N,2026-07-10T02:44:31.344288,15.05660720,.00028419,97.2860,60.3715,80.4487,279.7062,0,U,65391,999,4869,.22489553E-3,.3191E-4,0
STARLINK-35082,2025-191P,2026-07-10T02:24:34.000128,15.05683146,.00025744,97.2869,60.3906,86.8519,273.3003,0,U,65392,999,4869,.3193236E-3,.4558E-4,0
STARLINK-35097,2025-191Q,2026-07-10T06:27:48.930048,15.05661452,.00022056,97.2861,60.4639,98.5594,261.5884,0,U,65393,999,4726,.17001376E-3,.2398E-4,0
STARLINK-35058,2025-191R,2026-07-10T01:48:41.128992,15.05662186,.00027585,97.2848,60.2676,84.7797,275.3746,0,U,65394,999,4868,-.29641106E-4,-.484E-5,0
STARLINK-35094,2025-191S,2026-07-09T08:19:58.705536,15.05675592,.00023152,97.2852,59.5734,82.3953,277.7538,0,U,65395,999,4858,.28453378E-3,.4054E-4,0
STARLINK-34811,2025-191T,2026-07-10T02:12:37.132416,15.05662884,.000308,97.2837,60.2480,82.6064,277.5514,0,U,65396,999,4868,.16739073E-3,.2361E-4,0
STARLINK-34940,2025-191U,2026-07-09T12:43:10.855200,15.05661273,.00021325,97.2856,59.7855,89.4696,270.6776,0,U,65397,999,4860,.31018427E-3,.4423E-4,0
STARLINK-34931,2025-191V,2026-07-10T06:51:45.991872,15.05660070,.00028389,97.2854,60.4434,85.9749,274.1803,0,U,65398,999,4871,.22141938E-3,.3141E-4,0
STARLINK-34836,2025-191W,2026-07-10T06:23:50.011584,15.05663910,.00020059,97.2842,60.4677,85.5450,274.6007,0,U,65399,999,4871,.90775464E-4,.1254E-4,0
STARLINK-34876,2025-191X,2026-07-09T12:15:16.135488,15.05656926,.00022703,97.2882,59.8146,98.7951,261.3534,0,U,65400,999,4860,.34929812E-3,.4988E-4,0
STARLINK-34909,2025-191Y,2026-07-09T12:35:10.926528,15.05662562,.00022663,97.2856,59.7931,82.2274,277.9211,0,U,65401,999,4861,.14320633E-3,.2011E-4,0
STARLINK-34848,2025-191Z,2026-07-10T07:35:36.536640,15.05660126,.00022235,97.2879,60.5553,70.9757,289.1711,0,U,65402,999,4872,.20936907E-3,.2967E-4,0
LEMUR-2-LUCILLE-ROSE,2025-135BV,2026-07-10T07:14:29.852160,15.00452808,.00142725,97.7711,307.5136,204.1492,155.9064,0,U,65403,999,5210,.36197787E-3,.4504E-4,0
STARLINK-35031,2025-192A,2026-07-09T22:40:49.784160,15.34421658,.00015797,53.1603,32.9143,154.6468,205.4613,0,U,65404,999,4798,.58589432E-3,.19484E-3,0
STARLINK-34830,2025-192B,2026-07-10T03:37:38.406144,15.31724204,.00017982,53.1586,22.8161,180.9036,179.1962,0,U,65405,999,4815,.56605393E-3,.17254E-3,0
STARLINK-35036,2025-192C,2026-07-10T03:47:21.616512,15.30449178,.00052267,53.1588,23.5735,117.8358,242.3173,0,U,65406,999,4813,.91755382E-3,.27133E-3,0
STARLINK-35035,2025-192D,2026-07-08T23:30:01.479456,15.30208980,.00011509,53.1590,29.0153,85.6532,274.4600,0,U,65407,999,4796,.65753816E-3,.19171E-3,0
STARLINK-35008,2025-192E,2026-07-10T06:00:02.000160,15.30190630,.00007075,53.1595,23.0763,128.4331,53.6119,0,U,65408,999,576,-.29420865E-3,-.9059E-4,0
STARLINK-35022,2025-192F,2026-07-10T06:19:10.223328,15.31724886,.00010924,53.1600,22.0971,116.8707,243.2407,0,U,65409,999,4816,.53932582E-3,.16421E-3,0
STARLINK-35024,2025-192G,2026-07-08T19:58:45.632640,15.31717668,.00009002,53.1593,28.8080,86.9452,273.1652,0,U,65410,999,4794,.38288453E-3,.11541E-3,0
STARLINK-34983,2025-192H,2026-07-10T04:30:47.936448,15.31741559,.00007655,53.1604,22.3377,151.0697,209.0347,0,U,65411,999,4815,.86403222E-3,.26577E-3,0
STARLINK-34992,2025-192J,2026-07-08T21:18:19.205856,15.31711268,.00009184,53.1603,28.4426,101.5318,258.5787,0,U,65412,999,4793,.43437634E-3,.13143E-3,0
STARLINK-35003,2025-192K,2026-07-10T06:00:02.000160,15.34402044,.00011133,53.1601,23.1347,89.0390,61.5138,0,U,65413,999,572,-.34720225E-3,-.12089E-3,0
STARLINK-34238,2025-192M,2026-07-10T06:00:02.000160,15.33562119,.00008595,53.1592,23.2630,72.6684,12.1261,0,U,65415,999,587,-.33841583E-3,-.1149E-3,0
STARLINK-34855,2025-192N,2026-07-08T23:46:41.345184,15.31699374,.00010975,53.1594,29.0835,79.6550,280.4576,0,U,65416,999,4795,.1084936E-2,.33452E-3,0
